CCSDS_OMM_VERS = 2.0
CREATION_DATE  = 
ORIGINATOR     = 

OBJECT_NAME    = STARLINK-36259
OBJECT_ID      = 2025-299E
CENTER_NAME    = EARTH
REF_FRAME      = TEME
TIME_SYSTEM    = UTC
MEAN_ELEMENT_THEORY = SGP/SGP4

EPOCH          = 2026-01-03T04:00:00.999072
MEAN_MOTION    = 15.50674690
ECCENTRICITY   = .0001644
INCLINATION    = 42.9990
RA_OF_ASC_NODE = 186.6291
ARG_OF_PERICENTER = 269.4039
MEAN_ANOMALY   = 235.1098

EPHEMERIS_TYPE = 0
CLASSIFICATION_TYPE = U
NORAD_CAT_ID   = 67106
ELEMENT_SET_NO = 999
REV_AT_EPOCH   = 425
BSTAR          = -.36065E-2
MEAN_MOTION_DOT = -.207132E-2
MEAN_MOTION_DDOT = 0

CCSDS_OMM_VERS = 2.0
CREATION_DATE  = 
ORIGINATOR     = 

OBJECT_NAME    = STARLINK-36196
OBJECT_ID      = 2025-299F
CENTER_NAME    = EARTH
REF_FRAME      = TEME
TIME_SYSTEM    = UTC
MEAN_ELEMENT_THEORY = SGP/SGP4

EPOCH          = 2026-01-03T04:00:00.999072
MEAN_MOTION    = 15.50707195
ECCENTRICITY   = .000215
INCLINATION    = 42.9993
RA_OF_ASC_NODE = 186.6337
ARG_OF_PERICENTER = 285.3050
MEAN_ANOMALY   = 217.1877

EPHEMERIS_TYPE = 0
CLASSIFICATION_TYPE = U
NORAD_CAT_ID   = 67107
ELEMENT_SET_NO = 999
REV_AT_EPOCH   = 425
BSTAR          = -.27905E-2
MEAN_MOTION_DOT = -.161468E-2
MEAN_MOTION_DDOT = 0

CCSDS_OMM_VERS = 2.0
CREATION_DATE  = 
ORIGINATOR     = 

OBJECT_NAME    = STARLINK-36208
OBJECT_ID      = 2025-299G
CENTER_NAME    = EARTH
REF_FRAME      = TEME
TIME_SYSTEM    = UTC
MEAN_ELEMENT_THEORY = SGP/SGP4

EPOCH          = 2026-01-03T04:00:00.999072
MEAN_MOTION    = 15.50628587
ECCENTRICITY   = .0001666
INCLINATION    = 42.9990
RA_OF_ASC_NODE = 186.6240
ARG_OF_PERICENTER = 264.5412
MEAN_ANOMALY   = 241.8889

EPHEMERIS_TYPE = 0
CLASSIFICATION_TYPE = U
NORAD_CAT_ID   = 67108
ELEMENT_SET_NO = 999
REV_AT_EPOCH   = 425
BSTAR          = -.171E-2
MEAN_MOTION_DOT = -.9957E-3
MEAN_MOTION_DDOT = 0

CCSDS_OMM_VERS = 2.0
CREATION_DATE  = 
ORIGINATOR     = 

OBJECT_NAME    = STARLINK-35764
OBJECT_ID      = 2025-299H
CENTER_NAME    = EARTH
REF_FRAME      = TEME
TIME_SYSTEM    = UTC
MEAN_ELEMENT_THEORY = SGP/SGP4

EPOCH          = 2026-01-03T04:00:00.999072
MEAN_MOTION    = 15.50678730
ECCENTRICITY   = .0001454
INCLINATION    = 42.9991
RA_OF_ASC_NODE = 186.6198
ARG_OF_PERICENTER = 271.2118
MEAN_ANOMALY   = 237.1325

EPHEMERIS_TYPE = 0
CLASSIFICATION_TYPE = U
NORAD_CAT_ID   = 67109
ELEMENT_SET_NO = 999
REV_AT_EPOCH   = 414
BSTAR          = -.36978E-2
MEAN_MOTION_DOT = -.212254E-2
MEAN_MOTION_DDOT = 0

CCSDS_OMM_VERS = 2.0
CREATION_DATE  = 
ORIGINATOR     = 

OBJECT_NAME    = STARLINK-35781
OBJECT_ID      = 2025-299J
CENTER_NAME    = EARTH
REF_FRAME      = TEME
TIME_SYSTEM    = UTC
MEAN_ELEMENT_THEORY = SGP/SGP4

EPOCH          = 2026-01-03T04:00:00.999072
MEAN_MOTION    = 15.50651204
ECCENTRICITY   = .0001605
INCLINATION    = 42.9992
RA_OF_ASC_NODE = 186.6090
ARG_OF_PERICENTER = 266.5557
MEAN_ANOMALY   = 245.6280

EPHEMERIS_TYPE = 0
CLASSIFICATION_TYPE = U
NORAD_CAT_ID   = 67110
ELEMENT_SET_NO = 999
REV_AT_EPOCH   = 420
BSTAR          = -.2927E-2
MEAN_MOTION_DOT = -.168844E-2
MEAN_MOTION_DDOT = 0

CCSDS_OMM_VERS = 2.0
CREATION_DATE  = 
ORIGINATOR     = 

OBJECT_NAME    = STARLINK-35875
OBJECT_ID      = 2025-299K
CENTER_NAME    = EARTH
REF_FRAME      = TEME
TIME_SYSTEM    = UTC
MEAN_ELEMENT_THEORY = SGP/SGP4

EPOCH          = 2026-01-03T04:00:00.999072
MEAN_MOTION    = 15.50648219
ECCENTRICITY   = .000148
INCLINATION    = 42.9992
RA_OF_ASC_NODE = 186.6149
ARG_OF_PERICENTER = 269.0673
MEAN_ANOMALY   = 241.1993

EPHEMERIS_TYPE = 0
CLASSIFICATION_TYPE = U
NORAD_CAT_ID   = 67111
ELEMENT_SET_NO = 999
REV_AT_EPOCH   = 414
BSTAR          = -.28169E-2
MEAN_MOTION_DOT = -.16261E-2
MEAN_MOTION_DDOT = 0

CCSDS_OMM_VERS = 2.0
CREATION_DATE  = 
ORIGINATOR     = 

OBJECT_NAME    = STARLINK-35906
OBJECT_ID      = 2025-299L
CENTER_NAME    = EARTH
REF_FRAME      = TEME
TIME_SYSTEM    = UTC
MEAN_ELEMENT_THEORY = SGP/SGP4

EPOCH          = 2026-01-03T04:00:00.999072
MEAN_MOTION    = 15.50669210
ECCENTRICITY   = .0001607
INCLINATION    = 42.9991
RA_OF_ASC_NODE = 186.6048
ARG_OF_PERICENTER = 268.8388
MEAN_ANOMALY   = 245.2570

EPHEMERIS_TYPE = 0
CLASSIFICATION_TYPE = U
NORAD_CAT_ID   = 67112
ELEMENT_SET_NO = 999
REV_AT_EPOCH   = 414
BSTAR          = -.34041E-2
MEAN_MOTION_DOT = -.195769E-2
MEAN_MOTION_DDOT = 0

CCSDS_OMM_VERS = 2.0
CREATION_DATE  = 
ORIGINATOR     = 

OBJECT_NAME    = STARLINK-35789
OBJECT_ID      = 2025-299M
CENTER_NAME    = EARTH
REF_FRAME      = TEME
TIME_SYSTEM    = UTC
MEAN_ELEMENT_THEORY = SGP/SGP4

EPOCH          = 2026-01-03T04:00:00.999072
MEAN_MOTION    = 15.50646514
ECCENTRICITY   = .0001726
INCLINATION    = 42.9993
RA_OF_ASC_NODE = 186.5993
ARG_OF_PERICENTER = 269.7790
MEAN_ANOMALY   = 246.2388

EPHEMERIS_TYPE = 0
CLASSIFICATION_TYPE = U
NORAD_CAT_ID   = 67113
ELEMENT_SET_NO = 999
REV_AT_EPOCH   = 414
BSTAR          = -.27576E-2
MEAN_MOTION_DOT = -.159258E-2
MEAN_MOTION_DDOT = 0

CCSDS_OMM_VERS = 2.0
CREATION_DATE  = 
ORIGINATOR     = 

OBJECT_NAME    = STARLINK-36180
OBJECT_ID      = 2025-299N
CENTER_NAME    = EARTH
REF_FRAME      = TEME
TIME_SYSTEM    = UTC
MEAN_ELEMENT_THEORY = SGP/SGP4

EPOCH          = 2026-01-03T04:00:00.999072
MEAN_MOTION    = 15.50653865
ECCENTRICITY   = .0001644
INCLINATION    = 42.9993
RA_OF_ASC_NODE = 186.5947
ARG_OF_PERICENTER = 259.7230
MEAN_ANOMALY   = 258.2129

EPHEMERIS_TYPE = 0
CLASSIFICATION_TYPE = U
NORAD_CAT_ID   = 67114
ELEMENT_SET_NO = 999
REV_AT_EPOCH   = 425
BSTAR          = -.30061E-2
MEAN_MOTION_DOT = -.173315E-2
MEAN_MOTION_DDOT = 0

CCSDS_OMM_VERS = 2.0
CREATION_DATE  = 
ORIGINATOR     = 

OBJECT_NAME    = STARLINK-35892
OBJECT_ID      = 2025-299P
CENTER_NAME    = EARTH
REF_FRAME      = TEME
TIME_SYSTEM    = UTC
MEAN_ELEMENT_THEORY = SGP/SGP4

EPOCH          = 2026-01-03T04:00:00.999072
MEAN_MOTION    = 15.50857441
ECCENTRICITY   = .000135
INCLINATION    = 42.9991
RA_OF_ASC_NODE = 186.5901
ARG_OF_PERICENTER = 269.1478
MEAN_ANOMALY   = 250.6277

EPHEMERIS_TYPE = 0
CLASSIFICATION_TYPE = U
NORAD_CAT_ID   = 67115
ELEMENT_SET_NO = 999
REV_AT_EPOCH   = 414
BSTAR          = -.71448E-2
MEAN_MOTION_DOT = -.402636E-2
MEAN_MOTION_DDOT = 0

CCSDS_OMM_VERS = 2.0
CREATION_DATE  = 
ORIGINATOR     = 

OBJECT_NAME    = STARLINK-35738
OBJECT_ID      = 2025-299Q
CENTER_NAME    = EARTH
REF_FRAME      = TEME
TIME_SYSTEM    = UTC
MEAN_ELEMENT_THEORY = SGP/SGP4

EPOCH          = 2026-01-03T04:00:00.999072
MEAN_MOTION    = 15.50691821
ECCENTRICITY   = .0001375
INCLINATION    = 42.9991
RA_OF_ASC_NODE = 186.5850
ARG_OF_PERICENTER = 265.7980
MEAN_ANOMALY   = 255.9476

EPHEMERIS_TYPE = 0
CLASSIFICATION_TYPE = U
NORAD_CAT_ID   = 67116
ELEMENT_SET_NO = 999
REV_AT_EPOCH   = 414
BSTAR          = -.37836E-2
MEAN_MOTION_DOT = -.217136E-2
MEAN_MOTION_DDOT = 0

CCSDS_OMM_VERS = 2.0
CREATION_DATE  = 
ORIGINATOR     = 

OBJECT_NAME    = STARLINK-35674
OBJECT_ID      = 2025-299R
CENTER_NAME    = EARTH
REF_FRAME      = TEME
TIME_SYSTEM    = UTC
MEAN_ELEMENT_THEORY = SGP/SGP4

EPOCH          = 2026-01-03T04:00:00.999072
MEAN_MOTION    = 15.50413253
ECCENTRICITY   = .0001101
INCLINATION    = 42.9994
RA_OF_ASC_NODE = 186.5797
ARG_OF_PERICENTER = 249.5782
MEAN_ANOMALY   = 274.0986

EPHEMERIS_TYPE = 0
CLASSIFICATION_TYPE = U
NORAD_CAT_ID   = 67117
ELEMENT_SET_NO = 999
REV_AT_EPOCH   = 404
BSTAR          = -.40359E-1
MEAN_MOTION_DOT = -.2090952E-1
MEAN_MOTION_DDOT = 0

CCSDS_OMM_VERS = 2.0
CREATION_DATE  = 
ORIGINATOR     = 

OBJECT_NAME    = STARLINK-35701
OBJECT_ID      = 2025-299S
CENTER_NAME    = EARTH
REF_FRAME      = TEME
TIME_SYSTEM    = UTC
MEAN_ELEMENT_THEORY = SGP/SGP4

EPOCH          = 2026-01-03T04:00:00.999072
MEAN_MOTION    = 15.50789669
ECCENTRICITY   = .0001039
INCLINATION    = 42.9992
RA_OF_ASC_NODE = 186.5765
ARG_OF_PERICENTER = 278.0614
MEAN_ANOMALY   = 247.4493

EPHEMERIS_TYPE = 0
CLASSIFICATION_TYPE = U
NORAD_CAT_ID   = 67118
ELEMENT_SET_NO = 999
REV_AT_EPOCH   = 420
BSTAR          = -.53145E-2
MEAN_MOTION_DOT = -.302627E-2
MEAN_MOTION_DDOT = 0

CCSDS_OMM_VERS = 2.0
CREATION_DATE  = 
ORIGINATOR     = 

OBJECT_NAME    = STARLINK-36179
OBJECT_ID      = 2025-299T
CENTER_NAME    = EARTH
REF_FRAME      = TEME
TIME_SYSTEM    = UTC
MEAN_ELEMENT_THEORY = SGP/SGP4

EPOCH          = 2026-01-03T04:00:00.999072
MEAN_MOTION    = 15.51049008
ECCENTRICITY   = .0001054
INCLINATION    = 42.9993
RA_OF_ASC_NODE = 186.5653
ARG_OF_PERICENTER = 249.7194
MEAN_ANOMALY   = 279.6604

EPHEMERIS_TYPE = 0
CLASSIFICATION_TYPE = U
NORAD_CAT_ID   = 67119
ELEMENT_SET_NO = 999
REV_AT_EPOCH   = 425
BSTAR          = -.33755E-1
MEAN_MOTION_DOT = -.178792E-1
MEAN_MOTION_DDOT = 0

CCSDS_OMM_VERS = 2.0
CREATION_DATE  = 
ORIGINATOR     = 

OBJECT_NAME    = STARLINK-36217
OBJECT_ID      = 2025-299U
CENTER_NAME    = EARTH
REF_FRAME      = TEME
TIME_SYSTEM    = UTC
MEAN_ELEMENT_THEORY = SGP/SGP4

EPOCH          = 2026-01-03T04:00:00.999072
MEAN_MOTION    = 15.50702035
ECCENTRICITY   = .0001451
INCLINATION    = 42.9992
RA_OF_ASC_NODE = 186.5713
ARG_OF_PERICENTER = 268.7217
MEAN_ANOMALY   = 258.7803

EPHEMERIS_TYPE = 0
CLASSIFICATION_TYPE = U
NORAD_CAT_ID   = 67120
ELEMENT_SET_NO = 999
REV_AT_EPOCH   = 425
BSTAR          = -.3795E-2
MEAN_MOTION_DOT = -.217852E-2
MEAN_MOTION_DDOT = 0

